{
  "norad_id": 62807,
  "name": "STARLINK-32886",
  "history": [
    {
      "epoch": "2026-03-28T20:27:24.775776Z",
      "apogee_km": 475.9540441810077,
      "perigee_km": 474.37504350530617,
      "latitude_deg": 2.3576584831962747e-05,
      "longitude_deg": 87.37011496192197,
      "height_km": 476.06374956338203,
      "semi_major_axis_km": 6853.301543843157,
      "eccentricity": 0.0001152,
      "inclination_deg": 53.1577,
      "raan_deg": 220.4902,
      "arg_perigee_deg": 90.0881,
      "mean_anomaly_deg": 270.0252,
      "mean_motion_rev_day": 15.30216922
    }
  ]
}