{"fetched_at":"2026-03-29T16:36:15Z","count":15609,"tles":[{"name":"STARLINK-32886","line1":"1 62807U 25018B   26087.85237009  .00018126  00000+0  62231-3 0  9990","line2":"2 62807  53.1577 220.4902 0001152  90.0881 270.0252 15.30216922 66110","category":"Starlink"}]}